start=new Date('2022-09-17T00:00:00.000Z').valueOf();
sats=[{"MEAN_MOTION_DDOT":"0.0000000000000","REV_AT_EPOCH":"130","OBJECT_ID":"2022-101AA","MEAN_ANOMALY":"21.8395","PERIOD":"91.533","NORAD_CAT_ID":"53551","RCS_SIZE":"LARGE","ELEMENT_SET_NO":"999","MEAN_ELEMENT_THEORY":"SGP4","DECAY_DATE":null,"OBJECT_TYPE":"PAYLOAD","SEMIMAJOR_AXIS":"6727.870","ARG_OF_PERICENTER":"14.7725","ECCENTRICITY":"0.00028560","PERIAPSIS":"347.813","TIME_SYSTEM":"UTC","RA_OF_ASC_NODE":"15.5429","TLE_LINE1":"1 53551U 22101AA  22259.91667824 -.00052557  00000-0 -37214-3 0  9994","COUNTRY_CODE":"US","EPOCH":"2022-09-16T22:00:00.999936","FILE":"3575787","MEAN_MOTION":"15.73208959","REF_FRAME":"TEME","LAUNCH_DATE":"2022-08-19","GP_ID":"212751743","INCLINATION":"53.2170","BSTAR":"-0.00037214000000","EPHEMERIS_TYPE":"0","CLASSIFICATION_TYPE":"U","TLE_LINE2":"2 53551  53.2170  15.5429 0002856  14.7725  21.8395 15.73208959  1303","SITE":"AFETR","CENTER_NAME":"EARTH","OBJECT_NAME":"STARLINK-4514","APOAPSIS":"351.656","MEAN_MOTION_DOT":"-0.00052557"},{"CLASSIFICATION_TYPE":"U","TLE_LINE2":"2 53552  53.2168  15.5363 0002808  13.0051  27.1576 15.73154973  1305","SITE":"AFETR","OBJECT_NAME":"STARLINK-4495","CENTER_NAME":"EARTH","APOAPSIS":"351.778","MEAN_MOTION_DOT":"0.00033257","COUNTRY_CODE":"US","FILE":"3575787","MEAN_MOTION":"15.73154973","EPOCH":"2022-09-16T22:00:00.999936","GP_ID":"212751014","LAUNCH_DATE":"2022-08-19","REF_FRAME":"TEME","BSTAR":"0.00024087000000","EPHEMERIS_TYPE":"0","INCLINATION":"53.2168","MEAN_ELEMENT_THEORY":"SGP4","ARG_OF_PERICENTER":"13.0051","ECCENTRICITY":"0.00028080","SEMIMAJOR_AXIS":"6728.024","DECAY_DATE":null,"OBJECT_TYPE":"PAYLOAD","TIME_SYSTEM":"UTC","RA_OF_ASC_NODE":"15.5363","PERIAPSIS":"347.999","TLE_LINE1":"1 53552U 22101AB  22259.91667824  .00033257  00000-0  24087-3 0  9993","REV_AT_EPOCH":"130","MEAN_MOTION_DDOT":"0.0000000000000","MEAN_ANOMALY":"27.1576","PERIOD":"91.536","NORAD_CAT_ID":"53552","OBJECT_ID":"2022-101AB","ELEMENT_SET_NO":"999","RCS_SIZE":"LARGE"},{"TLE_LINE2":"2 53553  53.2167  15.5374 0002689  13.9103  25.0639 15.73144040  1302","SITE":"AFETR","CENTER_NAME":"EARTH","OBJECT_NAME":"STARLINK-4501","CLASSIFICATION_TYPE":"U","MEAN_MOTION_DOT":"-0.00016504","APOAPSIS":"351.729","MEAN_MOTION":"15.73144040","FILE":"3575787","EPOCH":"2022-09-16T22:00:00.999936","COUNTRY_CODE":"US","EPHEMERIS_TYPE":"0","BSTAR":"-0.00011364000000","INCLINATION":"53.2167","GP_ID":"212751797","REF_FRAME":"TEME","LAUNCH_DATE":"2022-08-19","ARG_OF_PERICENTER":"13.9103","ECCENTRICITY":"0.00026890","DECAY_DATE":null,"OBJECT_TYPE":"PAYLOAD","SEMIMAJOR_AXIS":"6728.055","MEAN_ELEMENT_THEORY":"SGP4","TLE_LINE1":"1 53553U 22101AC  22259.91667824 -.00016504  00000-0 -11364-3 0  9996","TIME_SYSTEM":"UTC","RA_OF_ASC_NODE":"15.5374","PERIAPSIS":"348.111","NORAD_CAT_ID":"53553","MEAN_ANOMALY":"25.0639","PERIOD":"91.536","OBJECT_ID":"2022-101AC","REV_AT_EPOCH":"130","MEAN_MOTION_DDOT":"0.0000000000000","ELEMENT_SET_NO":"999","RCS_SIZE":"LARGE"},{"TLE_LINE1":"1 53554U 22101AD  22259.91667824  .00001644  00000-0  16140-4 0  9992","PERIAPSIS":"347.987","TIME_SYSTEM":"UTC","RA_OF_ASC_NODE":"15.5307","DECAY_DATE":null,"OBJECT_TYPE":"PAYLOAD","SEMIMAJOR_AXIS":"6727.893","ARG_OF_PERICENTER":"26.7255","ECCENTRICITY":"0.00026330","MEAN_ELEMENT_THEORY":"SGP4","RCS_SIZE":"LARGE","ELEMENT_SET_NO":"999","OBJECT_ID":"2022-101AD","NORAD_CAT_ID":"53554","MEAN_ANOMALY":"14.7056","PERIOD":"91.533","MEAN_MOTION_DDOT":"0.0000000000000","REV_AT_EPOCH":"130","MEAN_MOTION_DOT":"0.00001644","APOAPSIS":"351.530","SITE":"AFETR","TLE_LINE2":"2 53554  53.2164  15.5307 0002633  26.7255  14.7056 15.73200720  1301","CENTER_NAME":"EARTH","OBJECT_NAME":"STARLINK-4506","CLASSIFICATION_TYPE":"U","INCLINATION":"53.2164","EPHEMERIS_TYPE":"0","BSTAR":"0.00001614000000","LAUNCH_DATE":"2022-08-19","REF_FRAME":"TEME","GP_ID":"212751273","EPOCH":"2022-09-16T22:00:00.999936","MEAN_MOTION":"15.73200720","FILE":"3575787","COUNTRY_CODE":"US"},{"RCS_SIZE":"LARGE","ELEMENT_SET_NO":"999","OBJECT_ID":"2022-101AE","NORAD_CAT_ID":"53555","MEAN_ANOMALY":"21.5255","PERIOD":"91.535","REV_AT_EPOCH":"130","MEAN_MOTION_DDOT":"0.0000000000000","TLE_LINE1":"1 53555U 22101AE  22259.91667824  .00034250  00000-0  24777-3 0  9996","PERIAPSIS":"347.983","TIME_SYSTEM":"UTC","RA_OF_ASC_NODE":"15.5340","DECAY_DATE":null,"OBJECT_TYPE":"PAYLOAD","SEMIMAJOR_AXIS":"6727.987","ARG_OF_PERICENTER":"18.0414","ECCENTRICITY":"0.00027780","MEAN_ELEMENT_THEORY":"SGP4","INCLINATION":"53.2162","EPHEMERIS_TYPE":"0","BSTAR":"0.00024777000000","REF_FRAME":"TEME","LAUNCH_DATE":"2022-08-19","GP_ID":"212751954","EPOCH":"2022-09-16T22:00:00.999936","MEAN_MOTION":"15.73167702","FILE":"3575787","COUNTRY_CODE":"US","MEAN_MOTION_DOT":"0.00034250","APOAPSIS":"351.721","TLE_LINE2":"2 53555  53.2162  15.5340 0002778  18.0414  21.5255 15.73167702  1307","SITE":"AFETR","OBJECT_NAME":"STARLINK-4504","CENTER_NAME":"EARTH","CLASSIFICATION_TYPE":"U"},{"REV_AT_EPOCH":"130","MEAN_MOTION_DDOT":"0.0000000000000","PERIOD":"91.533","MEAN_ANOMALY":"31.4078","NORAD_CAT_ID":"53556","OBJECT_ID":"2022-101AF","ELEMENT_SET_NO":"999","RCS_SIZE":"LARGE","MEAN_ELEMENT_THEORY":"SGP4","ARG_OF_PERICENTER":"11.1581","ECCENTRICITY":"0.00026860","SEMIMAJOR_AXIS":"6727.888","DECAY_DATE":null,"OBJECT_TYPE":"PAYLOAD","TIME_SYSTEM":"UTC","RA_OF_ASC_NODE":"15.5269","PERIAPSIS":"347.946","TLE_LINE1":"1 53556U 22101AF  22259.91667824 -.00071332  00000-0 -50796-3 0  9991","COUNTRY_CODE":"US","FILE":"3575787","MEAN_MOTION":"15.73202616","EPOCH":"2022-09-16T22:00:00.999936","GP_ID":"212751429","REF_FRAME":"TEME","LAUNCH_DATE":"2022-08-19","BSTAR":"-0.00050796000000","EPHEMERIS_TYPE":"0","INCLINATION":"53.2167","CLASSIFICATION_TYPE":"U","SITE":"AFETR","TLE_LINE2":"2 53556  53.2167  15.5269 0002686  11.1581  31.4078 15.73202616  1307","CENTER_NAME":"EARTH","OBJECT_NAME":"STARLINK-4505","APOAPSIS":"351.560","MEAN_MOTION_DOT":"-0.00071332"},{"NORAD_CAT_ID":"53557","PERIOD":"91.532","MEAN_ANOMALY":"26.0174","OBJECT_ID":"2022-101AG","REV_AT_EPOCH":"130","MEAN_MOTION_DDOT":"0.0000000000000","ELEMENT_SET_NO":"999","RCS_SIZE":"LARGE","ECCENTRICITY":"0.00025360","ARG_OF_PERICENTER":"14.7309","OBJECT_TYPE":"PAYLOAD","DECAY_DATE":null,"SEMIMAJOR_AXIS":"6727.853","MEAN_ELEMENT_THEORY":"SGP4","TLE_LINE1":"1 53557U 22101AG  22259.91667824 -.00070565  00000-0 -50216-3 0  9996","TIME_SYSTEM":"UTC","RA_OF_ASC_NODE":"15.5333","PERIAPSIS":"348.012","MEAN_MOTION":"15.73214718","FILE":"3575787","EPOCH":"2022-09-16T22:00:00.999936","COUNTRY_CODE":"US","EPHEMERIS_TYPE":"0","BSTAR":"-0.00050216000000","INCLINATION":"53.2164","GP_ID":"212751587","REF_FRAME":"TEME","LAUNCH_DATE":"2022-08-19","TLE_LINE2":"2 53557  53.2164  15.5333 0002536  14.7309  26.0174 15.73214718  1301","SITE":"AFETR","CENTER_NAME":"EARTH","OBJECT_NAME":"STARLINK-4502","CLASSIFICATION_TYPE":"U","MEAN_MOTION_DOT":"-0.00070565","APOAPSIS":"351.424"},{"MEAN_ELEMENT_THEORY":"SGP4","ARG_OF_PERICENTER":"12.6251","ECCENTRICITY":"0.00024870","DECAY_DATE":null,"SEMIMAJOR_AXIS":"6728.057","OBJECT_TYPE":"PAYLOAD","RA_OF_ASC_NODE":"15.5291","TIME_SYSTEM":"UTC","PERIAPSIS":"348.249","TLE_LINE1":"1 53558U 22101AH  22259.91667824  .00006814  00000-0  53062-4 0  9994","MEAN_MOTION_DDOT":"0.0000000000000","REV_AT_EPOCH":"130","MEAN_ANOMALY":"31.1502","PERIOD":"91.536","NORAD_CAT_ID":"53558","OBJECT_ID":"2022-101AH","ELEMENT_SET_NO":"999","RCS_SIZE":"LARGE","CLASSIFICATION_TYPE":"U","OBJECT_NAME":"STARLINK-4494","TLE_LINE2":"2 53558  53.2165  15.5291 0002487  12.6251  31.1502 15.73143092  1302","SITE":"AFETR","CENTER_NAME":"EARTH","APOAPSIS":"351.596","MEAN_MOTION_DOT":"0.00006814","COUNTRY_CODE":"US","FILE":"3575787","MEAN_MOTION":"15.73143092","EPOCH":"2022-09-16T22:00:00.999936","GP_ID":"212750858","REF_FRAME":"TEME","LAUNCH_DATE":"2022-08-19","BSTAR":"0.00005306200000","EPHEMERIS_TYPE":"0","INCLINATION":"53.2165"},{"TLE_LINE2":"2 53559  53.2166  15.5319 0002617  13.2918  28.6345 15.73230817  1305","SITE":"AFETR","CENTER_NAME":"EARTH","OBJECT_NAME":"STARLINK-4508","CLASSIFICATION_TYPE":"U","MEAN_MOTION_DOT":"-0.00052802","APOAPSIS":"351.433","EPOCH":"2022-09-16T22:00:00.999936","FILE":"3575787","MEAN_MOTION":"15.73230817","COUNTRY_CODE":"US","INCLINATION":"53.2166","BSTAR":"-0.00037358000000","EPHEMERIS_TYPE":"0","LAUNCH_DATE":"2022-08-19","REF_FRAME":"TEME","GP_ID":"212751744","SEMIMAJOR_AXIS":"6727.807","DECAY_DATE":null,"OBJECT_TYPE":"PAYLOAD","ARG_OF_PERICENTER":"13.2918","ECCENTRICITY":"0.00026170","MEAN_ELEMENT_THEORY":"SGP4","TLE_LINE1":"1 53559U 22101AJ  22259.91667824 -.00052802  00000-0 -37358-3 0  9994","PERIAPSIS":"347.912","RA_OF_ASC_NODE":"15.5319","TIME_SYSTEM":"UTC","OBJECT_ID":"2022-101AJ","MEAN_ANOMALY":"28.6345","PERIOD":"91.531","NORAD_CAT_ID":"53559","MEAN_MOTION_DDOT":"0.0000000000000","REV_AT_EPOCH":"130","RCS_SIZE":"LARGE","ELEMENT_SET_NO":"999"},{"COUNTRY_CODE":"US","MEAN_MOTION":"15.73140788","FILE":"3575787","EPOCH":"2022-09-16T22:00:00.999936","GP_ID":"212751015","REF_FRAME":"TEME","LAUNCH_DATE":"2022-08-19","EPHEMERIS_TYPE":"0","BSTAR":"0.00021382000000","INCLINATION":"53.2162","CLASSIFICATION_TYPE":"U","TLE_LINE2":"2 53560  53.2162  15.5249 0002692  11.9612  32.9837 15.73140788  1305","SITE":"AFETR","CENTER_NAME":"EARTH","OBJECT_NAME":"STARLINK-4564","APOAPSIS":"351.740","MEAN_MOTION_DOT":"0.00029420","MEAN_MOTION_DDOT":"0.0000000000000","REV_AT_EPOCH":"130","NORAD_CAT_ID":"53560","PERIOD":"91.537","MEAN_ANOMALY":"32.9837","OBJECT_ID":"2022-101AK","ELEMENT_SET_NO":"999","RCS_SIZE":"LARGE","MEAN_ELEMENT_THEORY":"SGP4","ECCENTRICITY":"0.00026920","ARG_OF_PERICENTER":"11.9612","DECAY_DATE":null,"SEMIMAJOR_AXIS":"6728.064","OBJECT_TYPE":"PAYLOAD","RA_OF_ASC_NODE":"15.5249","TIME_SYSTEM":"UTC","PERIAPSIS":"348.118","TLE_LINE1":"1 53560U 22101AK  22259.91667824  .00029420  00000-0  21382-3 0  9994"}];
